NORAD_CAT_ID,OBJECT_NAME,OBJECT_TYPE,EPOCH,MEAN_MOTION,ECCENTRICITY,INCLINATION,RA_OF_ASC_NODE,ARG_OF_PERICENTER,MEAN_ANOMALY,BSTAR,MEAN_MOTION_DOT,MEAN_MOTION_DDOT,TLE_LINE0,TLE_LINE1,TLE_LINE2,SEMIMAJOR_AXIS,PERIOD,APOGEE,PERIGEE,DECAYED
56806.0,STARLINK-6072,PAYLOAD,2023-11-22 00:19:04,15.69931618,0.0003109,69.9974,281.9955,264.9365,95.1476,4.6965e-06,3.52e-06,0.0,0 STARLINK-6072,1 56806U 23078AR  23326.01324535  .00000352  00000-0  46965-5 0  9999,2 56806  69.9974 281.9955 0003109 264.9365  95.1476 15.69931618 27738,6737.23,91.724,361.189,357.0,0.0
56806.0,STARLINK-6072,PAYLOAD,2023-11-22 06:26:05,15.69928382,0.0002729,69.9979,281.2788,266.9376,93.1507,-1.6317e-05,-2.174e-05,0.0,0 STARLINK-6072,1 56806U 23078AR  23326.26811895 -.00002174  00000-0 -16317-4 0  9999,2 56806  69.9979 281.2788 0002729 266.9376  93.1507 15.69928382 27772,6737.239,91.724,360.942,357.265,0.0
56806.0,STARLINK-6072,PAYLOAD,2023-11-22 21:43:37,15.69920149,0.0002986,69.9983,279.4885,264.8071,95.2784,-4.4573e-06,-7.48e-06,0.0,0 STARLINK-6072,1 56806U 23078AR  23326.90528995 -.00000748  00000-0 -44573-5 0  9997,2 56806  69.9983 279.4885 0002986 264.8071  95.2784 15.69920149 27614,6737.262,91.724,361.139,357.116,0.0
56806.0,STARLINK-6072,PAYLOAD,2023-11-23 00:47:07,15.69918825,0.000309,69.9989,279.1287,269.9665,90.1177,-2.2965e-07,-2.4e-06,0.0,0 STARLINK-6072,1 56806U 23078AR  23327.03272387 -.00000240  00000-0 -22965-6 0  9992,2 56806  69.9989 279.1287 0003090 269.9665  90.1177 15.69918825 27893,6737.266,91.724,361.213,357.049,0.0
56806.0,STARLINK-6072,PAYLOAD,2023-11-23 06:54:07,15.69922421,0.0002439,69.9994,278.4129,255.3756,104.717,-3.2478e-06,-6.03e-06,0.0,0 STARLINK-6072,1 56806U 23078AR  23327.28758973 -.00000603  00000-0 -32478-5 0  9991,2 56806  69.9994 278.4129 0002439 255.3756 104.7170 15.69922421 27670,6737.256,91.724,360.764,357.478,0.0
56806.0,STARLINK-6072,PAYLOAD,2023-11-23 22:11:39,15.69893952,0.0002772,70.0,276.6209,272.7872,87.3007,4.8957e-05,5.67e-05,0.0,0 STARLINK-6072,1 56806U 23078AR  23327.92475869  .00005670  00000-0  48957-4 0  9997,2 56806  70.0000 276.6209 0002772 272.7872  87.3007 15.69893952 27774,6737.337,91.726,361.07,357.335,0.0
56806.0,STARLINK-6072,PAYLOAD,2023-11-24 07:22:08,15.69928629,0.0003138,69.999,275.5486,269.4426,90.641,2.3997e-05,2.674e-05,0.0,0 STARLINK-6072,1 56806U 23078AR  23328.30704724  .00002674  00000-0  23997-4 0  9993,2 56806  69.9990 275.5486 0003138 269.4426  90.6410 15.69928629 28090,6737.238,91.724,361.217,356.989,0.0
56806.0,STARLINK-6072,PAYLOAD,2023-11-24 19:36:10,15.69922529,0.0002801,69.9999,274.1138,276.8355,83.2522,4.6884e-06,3.51e-06,0.0,0 STARLINK-6072,1 56806U 23078AR  23328.81679153  .00000351  00000-0  46884-5 0  9997,2 56806  69.9999 274.1138 0002801 276.8355  83.2522 15.69922529 28171,6737.256,91.724,361.008,357.234,0.0
56806.0,STARLINK-6072,PAYLOAD,2023-11-24 22:39:41,15.69919465,0.0002925,69.9994,273.7557,250.9118,109.1761,-6.1662e-06,-9.54e-06,0.0,0 STARLINK-6072,1 56806U 23078AR  23328.94422829 -.00000954  00000-0 -61662-5 0  9999,2 56806  69.9994 273.7557 0002925 250.9118 109.1761 15.69919465 27934,6737.264,91.724,361.1,357.159,0.0
56806.0,STARLINK-6072,PAYLOAD,2023-11-25 00:11:26,15.69917921,0.0003086,69.9991,273.5771,259.4988,100.586,-1.0614e-05,-1.488e-05,0.0,0 STARLINK-6072,1 56806U 23078AR  23329.00794764 -.00001488  00000-0 -10614-4 0  9990,2 56806  69.9991 273.5771 0003086 259.4988 100.5860 15.69917921 28206,6737.269,91.725,361.213,357.055,0.0
56806.0,STARLINK-6072,PAYLOAD,2023-11-25 06:18:25,15.69933286,0.000329,69.9986,272.861,265.4732,94.6088,5.7829e-06,4.83e-06,0.0,0 STARLINK-6072,1 56806U 23078AR  23329.26280083  .00000483  00000-0  57829-5 0  9994,2 56806  69.9986 272.8610 0003290 265.4732  94.6088 15.69933286 27986,6737.225,91.724,361.306,356.873,0.0
56806.0,STARLINK-6072,PAYLOAD,2023-11-25 21:35:57,15.69934105,0.0003392,69.9984,271.0694,273.0136,87.0672,8.0727e-06,7.58e-06,0.0,0 STARLINK-6072,1 56806U 23078AR  23329.89996607  .00000758  00000-0  80727-5 0  9997,2 56806  69.9984 271.0694 0003392 273.0136  87.0672 15.69934105 28081,6737.223,91.724,361.373,356.802,0.0
56806.0,STARLINK-6072,PAYLOAD,2023-11-25 23:07:42,15.69926199,0.0003997,69.9991,270.8932,280.6992,79.3753,3.7223e-08,-2.09e-06,0.0,0 STARLINK-6072,1 56806U 23078AR  23329.96368949 -.00000209  00000-0  37223-7 0  9994,2 56806  69.9991 270.8932 0003997 280.6992  79.3753 15.69926199 28354,6737.245,91.724,361.803,356.417,0.0
56806.0,STARLINK-6072,PAYLOAD,2023-11-26 05:14:43,15.69915271,0.0002913,70.0002,270.1759,258.7632,101.3236,-9.5641e-06,-1.362e-05,0.0,0 STARLINK-6072,1 56806U 23078AR  23330.21856401 -.00001362  00000-0 -95641-5 0  9997,2 56806  70.0002 270.1759 0002913 258.7632 101.3236 15.69915271 28399,6737.276,91.725,361.104,357.179,0.0
56806.0,STARLINK-6072,PAYLOAD,2023-11-26 22:04:00,15.69915925,0.0002883,70.0008,268.2039,260.9494,99.1375,8.6277e-06,8.25e-06,0.0,0 STARLINK-6072,1 56806U 23078AR  23330.91944893  .00000825  00000-0  86277-5 0  9993,2 56806  70.0008 268.2039 0002883 260.9494  99.1375 15.69915925 28249,6737.275,91.725,361.082,357.197,0.0
56806.0,STARLINK-6072,PAYLOAD,2023-11-27 04:11:00,15.69922855,0.0002598,70.0004,267.4861,252.9028,107.1883,9.353e-06,9.12e-06,0.0,0 STARLINK-6072,1 56806U 23078AR  23331.17431190  .00000912  00000-0  93530-5 0  9990,2 56806  70.0004 267.4861 0002598 252.9028 107.1883 15.69922855 28543,6737.255,91.724,360.87,357.369,0.0
56806.0,STARLINK-6072,PAYLOAD,2023-11-27 05:42:46,15.69915892,0.0002544,69.9996,267.3065,274.0404,86.0501,5.9782e-06,5.06e-06,0.0,0 STARLINK-6072,1 56806U 23078AR  23331.23803449  .00000506  00000-0  59782-5 0  9997,2 56806  69.9996 267.3065 0002544 274.0404  86.0501 15.69915892 28555,6737.275,91.725,360.854,357.426,0.0
56806.0,STARLINK-6072,PAYLOAD,2023-11-27 21:00:16,15.69921775,0.0002618,70.001,265.5178,261.9238,98.1661,2.5545e-05,2.86e-05,0.0,0 STARLINK-6072,1 56806U 23078AR  23331.87518799  .00002860  00000-0  25545-4 0  9992,2 56806  70.0010 265.5178 0002618 261.9238  98.1661 15.69921775 28392,6737.258,91.724,360.887,357.359,0.0
56806.0,STARLINK-6072,PAYLOAD,2023-11-28 03:07:16,15.69919538,0.0002519,70.0019,264.8033,220.1772,139.9238,2.045e-05,2.247e-05,0.0,0 STARLINK-6072,1 56806U 23078AR  23332.13005720  .00002247  00000-0  20450-4 0  9996,2 56806  70.0019 264.8033 0002519 220.1772 139.9238 15.69919538 28694,6737.264,91.724,360.826,357.432,0.0
56806.0,STARLINK-6072,PAYLOAD,2023-11-28 04:39:04,15.69894085,0.0002251,70.0007,264.6227,258.8166,101.2777,-1.1347e-05,-1.574e-05,0.0,0 STARLINK-6072,1 56806U 23078AR  23332.19379745 -.00001574  00000-0 -11347-4 0  9992,2 56806  70.0007 264.6227 0002251 258.8166 101.2777 15.69894085 28703,6737.337,91.726,360.719,357.685,0.0
56806.0,STARLINK-6072,PAYLOAD,2023-11-28 23:00:01,15.69967083,0.0002771,70.0018,262.4741,220.8753,139.2235,2.133e-05,2.357e-05,0.0,0 STARLINK-6072,1 56806U 23078AR  23332.95835373  .00002357  00000-0  21330-4 0  9991,2 56806  70.0018 262.4741 0002771 220.8753 139.2235 15.69967083 28563,6737.128,91.722,360.86,357.126,0.0
56806.0,STARLINK-6072,PAYLOAD,2023-11-29 03:35:19,15.69932469,0.0002623,70.0018,261.9367,239.5302,120.5635,-1.4215e-05,-1.921e-05,0.0,0 STARLINK-6072,1 56806U 23078AR  23333.14953053 -.00001921  00000-0 -14215-4 0  9991,2 56806  70.0018 261.9367 0002623 239.5302 120.5635 15.69932469 28853,6737.227,91.724,360.859,357.325,0.0
56806.0,STARLINK-6072,PAYLOAD,2023-11-29 05:07:03,15.69934868,0.0003135,70.0001,261.7545,260.3637,99.7204,1.5925e-05,1.703e-05,0.0,0 STARLINK-6072,1 56806U 23078AR  23333.21323904  .00001703  00000-0  15925-4 0  9990,2 56806  70.0001 261.7545 0003135 260.3637  99.7204 15.69934868 28868,6737.22,91.724,361.197,356.973,0.0
56806.0,STARLINK-6072,PAYLOAD,2023-11-30 04:03:18,15.69959202,0.0003002,70.0015,259.0701,259.0179,101.0679,5.2493e-05,6.113e-05,0.0,0 STARLINK-6072,1 56806U 23078AR  23334.16896494  .00006113  00000-0  52493-4 0  9995,2 56806  70.0015 259.0701 0003002 259.0179 101.0679 15.69959202 29016,6737.151,91.722,361.038,356.993,0.0
56806.0,STARLINK-6072,PAYLOAD,2023-12-01 02:59:38,15.69919002,0.0003526,69.9989,256.3812,268.3867,91.6925,1.7639e-05,1.908e-05,0.0,0 STARLINK-6072,1 56806U 23078AR  23335.12474667  .00001908  00000-0  17639-4 0  9996,2 56806  69.9989 256.3812 0003526 268.3867  91.6925 15.69919002 29162,6737.266,91.724,361.506,356.755,0.0
56806.0,STARLINK-6072,PAYLOAD,2023-12-01 04:31:25,15.69892835,0.0003396,69.9991,256.2024,267.8376,92.243,-1.2511e-05,-1.715e-05,0.0,0 STARLINK-6072,1 56806U 23078AR  23335.18848657 -.00001715  00000-0 -12511-4 0  9998,2 56806  69.9991 256.2024 0003396 267.8376  92.2430 15.69892835 29176,6737.341,91.726,361.494,356.918,0.0
56806.0,STARLINK-6072,PAYLOAD,2023-12-01 19:48:53,15.69942368,0.0003304,69.9972,254.4083,259.2664,100.816,1.8104e-06,5e-08,0.0,0 STARLINK-6072,1 56806U 23078AR  23335.82561913  .00000005  00000-0  18104-5 0  9990,2 56806  69.9972 254.4083 0003304 259.2664 100.8160 15.69942368 29278,6737.199,91.723,361.29,356.838,0.0
56806.0,STARLINK-6072,PAYLOAD,2023-12-01 21:20:36,15.69977031,0.0003202,69.9986,254.2317,247.6491,112.4365,4.1898e-05,4.839e-05,0.0,0 STARLINK-6072,1 56806U 23078AR  23335.88930614  .00004839  00000-0  41898-4 0  9998,2 56806  69.9986 254.2317 0003202 247.6491 112.4365 15.69977031 29021,6737.1,91.721,361.122,356.807,0.0
56806.0,STARLINK-6072,PAYLOAD,2023-12-02 04:59:25,15.69924891,0.0003049,69.9969,253.3326,263.3784,96.7065,-1.6032e-05,-2.14e-05,0.0,0 STARLINK-6072,1 56806U 23078AR  23336.20793089 -.00002140  00000-0 -16032-4 0  9995,2 56806  69.9969 253.3326 0003049 263.3784  96.7065 15.69924891 29332,6737.249,91.724,361.168,357.06,0.0
56806.0,STARLINK-6072,PAYLOAD,2023-12-02 20:16:57,15.69905903,0.0003176,69.9985,251.544,264.4079,95.6755,-1.1432e-05,-1.586e-05,0.0,0 STARLINK-6072,1 56806U 23078AR  23336.84511252 -.00001586  00000-0 -11432-4 0  9997,2 56806  69.9985 251.5440 0003176 264.4079  95.6755 15.69905903 29435,6737.303,91.725,361.308,357.028,0.0
